[{"OBJECT_NAME":"STARLINK-32137","OBJECT_ID":"2024-120W","EPOCH":"2026-03-09T22:25:20.489088","MEAN_MOTION":15.30164126,"ECCENTRICITY":0.00011806,"INCLINATION":53.1599,"RA_OF_ASC_NODE":318.7857,"ARG_OF_PERICENTER":75.4191,"MEAN_ANOMALY":284.694,"EPHEMERIS_TYPE":0,"CLASSIFICATION_TYPE":"U","NORAD_CAT_ID":60155,"ELEMENT_SET_NO":999,"REV_AT_EPOCH":9641,"BSTAR":-0.00026647598,"MEAN_MOTION_DOT":-8.234e-5,"MEAN_MOTION_DDOT":0},{"OBJECT_NAME":"YAM-7","OBJECT_ID":"2024-149AN","EPOCH":"2026-03-09T17:13:55.117920","MEAN_MOTION":15.30304554,"ECCENTRICITY":0.00019733,"INCLINATION":97.3828,"RA_OF_ASC_NODE":149.4631,"ARG_OF_PERICENTER":296.5121,"MEAN_ANOMALY":63.5918,"EPHEMERIS_TYPE":0,"CLASSIFICATION_TYPE":"U","NORAD_CAT_ID":60504,"ELEMENT_SET_NO":999,"REV_AT_EPOCH":8683,"BSTAR":0.00030984439,"MEAN_MOTION_DOT":9.009e-5,"MEAN_MOTION_DDOT":0}]
